ONEWEB-0094             
1 45450U 20020AC  26092.26677882  .00000073  00000+0  15500-3 0  9990
2 45450  87.9194  20.9192 0002045  83.2011 276.9353 13.17649258296319
ONEWEB-0087             
1 45451U 20020AD  26092.26857360 -.00000117  00000+0 -36700-3 0  9998
2 45451  87.8924  36.1208 0001901  88.2836 271.8510 13.11419850292634
ONEWEB-0082             
1 45452U 20020AE  26092.26530780 -.00000474  00000+0 -13736-2 0  9992
2 45452  87.8916  36.1438 0001932  86.5833 273.5515 13.11418387292721
ONEWEB-0050             
1 45453U 20020AF  26092.33054340  .00003461  00000+0  35630-3 0  9999
2 45453  88.9233 243.5219 0001677 200.2152 159.9011 14.90083900329087
ONEWEB-0034             
1 45454U 20020AG  26092.28652648  .00000545  00000+0  15015-2 0  9993
2 45454  87.8910  36.1434 0001869  79.5467 280.5871 13.11418689292646
ONEWEB-0060             
1 45455U 20020AH  26092.25768389 -.00000475  00000+0 -13762-2 0  9992
2 45455  87.8907  36.1588 0002373 104.3456 255.7935 13.11417975292595
ONEWEB-0086             
1 45456U 20020AJ  26092.31279572 -.00000048  00000+0 -17008-3 0  9995
2 45456  87.8912  36.1377 0002561  87.9426 272.1995 13.11416000292665
ONEWEB-0088             
1 45457U 20020AK  26092.29077771  .00000587  00000+0  16196-2 0  9992
2 45457  87.8923  36.1084 0001519  78.8130 281.3169 13.11417600292590
ONEWEB-0102             
1 47258U 20100A   26092.27797332  .00000442  00000+0  11943-2 0  9997
2 47258  87.9008   5.7532 0001998  80.8373 279.2982 13.12445877254774
ONEWEB-0109             
1 47259U 20100B   26092.28645843  .00000433  00000+0  11679-2 0  9994
2 47259  87.9019   5.7280 0001869  75.1680 284.9656 13.12444169254608
ONEWEB-0110             
1 47260U 20100C   26092.31355478 -.00000296  00000+0 -85810-3 0  9990
2 47260  87.9020   5.7068 0001984  82.4382 277.6972 13.12442237254776
ONEWEB-0111             
1 47261U 20100D   26092.19157113  .00000148  00000+0  37665-3 0  9992
2 47261  87.9019   5.7499 0001768  82.6310 277.5019 13.12446271254599
ONEWEB-0114             
1 47262U 20100E   26092.29830557  .00000249  00000+0  65565-3 0  9996
2 47262  87.9020   5.7248 0001734  69.2237 290.9077 13.12444057254566
ONEWEB-0117             
1 47263U 20100F   26092.28983368  .00000411  00000+0  11075-2 0  9992
2 47263  87.9017   5.7200 0001797  78.2506 281.8824 13.12444323254575
ONEWEB-0118             
1 47264U 20100G   26092.24747874 -.00000368  00000+0 -10579-2 0  9990
2 47264  87.9018   5.7306 0001561  70.0948 290.0349 13.12444692254767
ONEWEB-0119             
1 47265U 20100H   26092.27289558  .00000296  00000+0  78682-3 0  9992
2 47265  87.9010   5.7492 0001788  77.4679 282.6650 13.12445720254742
