[{"OBJECT_NAME":"ONEWEB-0094","OBJECT_ID":"2020-020AC","EPOCH":"2026-04-02T06:24:09.690048","MEAN_MOTION":13.17649258,"ECCENTRICITY":0.0002045,"INCLINATION":87.9194,"RA_OF_ASC_NODE":20.9192,"ARG_OF_PERICENTER":83.2011,"MEAN_ANOMALY":276.9353,"EPHEMERIS_TYPE":0,"CLASSIFICATION_TYPE":"U","NORAD_CAT_ID":45450,"ELEMENT_SET_NO":999,"REV_AT_EPOCH":29631,"BSTAR":0.000155,"MEAN_MOTION_DOT":7.3e-07,"MEAN_MOTION_DDOT":0.0},{"OBJECT_NAME":"ONEWEB-0087","OBJECT_ID":"2020-020AD","EPOCH":"2026-04-02T06:26:44.759040","MEAN_MOTION":13.1141985,"ECCENTRICITY":0.0001901,"INCLINATION":87.8924,"RA_OF_ASC_NODE":36.1208,"ARG_OF_PERICENTER":88.2836,"MEAN_ANOMALY":271.851,"EPHEMERIS_TYPE":0,"CLASSIFICATION_TYPE":"U","NORAD_CAT_ID":45451,"ELEMENT_SET_NO":999,"REV_AT_EPOCH":29263,"BSTAR":-0.000367,"MEAN_MOTION_DOT":-1.17e-06,"MEAN_MOTION_DDOT":0.0},{"OBJECT_NAME":"ONEWEB-0082","OBJECT_ID":"2020-020AE","EPOCH":"2026-04-02T06:22:02.593920","MEAN_MOTION":13.11418387,"ECCENTRICITY":0.0001932,"INCLINATION":87.8916,"RA_OF_ASC_NODE":36.1438,"ARG_OF_PERICENTER":86.5833,"MEAN_ANOMALY":273.5515,"EPHEMERIS_TYPE":0,"CLASSIFICATION_TYPE":"U","NORAD_CAT_ID":45452,"ELEMENT_SET_NO":999,"REV_AT_EPOCH":29272,"BSTAR":-0.0013736000000000002,"MEAN_MOTION_DOT":-4.74e-06,"MEAN_MOTION_DDOT":0.0},{"OBJECT_NAME":"ONEWEB-0050","OBJECT_ID":"2020-020AF","EPOCH":"2026-04-02T07:55:58.949760","MEAN_MOTION":14.900839,"ECCENTRICITY":0.0001677,"INCLINATION":88.9233,"RA_OF_ASC_NODE":243.5219,"ARG_OF_PERICENTER":200.2152,"MEAN_ANOMALY":159.9011,"EPHEMERIS_TYPE":0,"CLASSIFICATION_TYPE":"U","NORAD_CAT_ID":45453,"ELEMENT_SET_NO":999,"REV_AT_EPOCH":32908,"BSTAR":0.0003563,"MEAN_MOTION_DOT":3.461e-05,"MEAN_MOTION_DDOT":0.0},{"OBJECT_NAME":"ONEWEB-0034","OBJECT_ID":"2020-020AG","EPOCH":"2026-04-02T06:52:35.887872","MEAN_MOTION":13.11418689,"ECCENTRICITY":0.0001869,"INCLINATION":87.891,"RA_OF_ASC_NODE":36.1434,"ARG_OF_PERICENTER":79.5467,"MEAN_ANOMALY":280.5871,"EPHEMERIS_TYPE":0,"CLASSIFICATION_TYPE":"U","NORAD_CAT_ID":45454,"ELEMENT_SET_NO":999,"REV_AT_EPOCH":29264,"BSTAR":0.0015015,"MEAN_MOTION_DOT":5.45e-06,"MEAN_MOTION_DDOT":0.0},{"OBJECT_NAME":"ONEWEB-0060","OBJECT_ID":"2020-020AH","EPOCH":"2026-04-02T06:11:03.888096","MEAN_MOTION":13.11417975,"ECCENTRICITY":0.0002373,"INCLINATION":87.8907,"RA_OF_ASC_NODE":36.1588,"ARG_OF_PERICENTER":104.3456,"MEAN_ANOMALY":255.7935,"EPHEMERIS_TYPE":0,"CLASSIFICATION_TYPE":"U","NORAD_CAT_ID":45455,"ELEMENT_SET_NO":999,"REV_AT_EPOCH":29259,"BSTAR":-0.0013762,"MEAN_MOTION_DOT":-4.75e-06,"MEAN_MOTION_DDOT":0.0},{"OBJECT_NAME":"ONEWEB-0086","OBJECT_ID":"2020-020AJ","EPOCH":"2026-04-02T07:30:25.550208","MEAN_MOTION":13.11416,"ECCENTRICITY":0.0002561,"INCLINATION":87.8912,"RA_OF_ASC_NODE":36.1377,"ARG_OF_PERICENTER":87.9426,"MEAN_ANOMALY":272.1995,"EPHEMERIS_TYPE":0,"CLASSIFICATION_TYPE":"U","NORAD_CAT_ID":45456,"ELEMENT_SET_NO":999,"REV_AT_EPOCH":29266,"BSTAR":-0.00017008000000000002,"MEAN_MOTION_DOT":-4.8e-07,"MEAN_MOTION_DDOT":0.0},{"OBJECT_NAME":"ONEWEB-0088","OBJECT_ID":"2020-020AK","EPOCH":"2026-04-02T06:58:43.194144","MEAN_MOTION":13.114176,"ECCENTRICITY":0.0001519,"INCLINATION":87.8923,"RA_OF_ASC_NODE":36.1084,"ARG_OF_PERICENTER":78.813,"MEAN_ANOMALY":281.3169,"EPHEMERIS_TYPE":0,"CLASSIFICATION_TYPE":"U","NORAD_CAT_ID":45457,"ELEMENT_SET_NO":999,"REV_AT_EPOCH":29259,"BSTAR":0.0016196,"MEAN_MOTION_DOT":5.87e-06,"MEAN_MOTION_DDOT":0.0},{"OBJECT_NAME":"ONEWEB-0102","OBJECT_ID":"2020-100A","EPOCH":"2026-04-02T06:40:16.894848","MEAN_MOTION":13.12445877,"ECCENTRICITY":0.0001998,"INCLINATION":87.9008,"RA_OF_ASC_NODE":5.7532,"ARG_OF_PERICENTER":80.8373,"MEAN_ANOMALY":279.2982,"EPHEMERIS_TYPE":0,"CLASSIFICATION_TYPE":"U","NORAD_CAT_ID":47258,"ELEMENT_SET_NO":999,"REV_AT_EPOCH":25477,"BSTAR":0.0011943,"MEAN_MOTION_DOT":4.42e-06,"MEAN_MOTION_DDOT":0.0},{"OBJECT_NAME":"ONEWEB-0109","OBJECT_ID":"2020-100B","EPOCH":"2026-04-02T06:52:30.008352","MEAN_MOTION":13.12444169,"ECCENTRICITY":0.0001869,"INCLINATION":87.9019,"RA_OF_ASC_NODE":5.728,"ARG_OF_PERICENTER":75.168,"MEAN_ANOMALY":284.9656,"EPHEMERIS_TYPE":0,"CLASSIFICATION_TYPE":"U","NORAD_CAT_ID":47259,"ELEMENT_SET_NO":999,"REV_AT_EPOCH":25460,"BSTAR":0.0011679000000000001,"MEAN_MOTION_DOT":4.33e-06,"MEAN_MOTION_DDOT":0.0},{"OBJECT_NAME":"ONEWEB-0110","OBJECT_ID":"2020-100C","EPOCH":"2026-04-02T07:31:31.132992","MEAN_MOTION":13.12442237,"ECCENTRICITY":0.0001984,"INCLINATION":87.902,"RA_OF_ASC_NODE":5.7068,"ARG_OF_PERICENTER":82.4382,"MEAN_ANOMALY":277.6972,"EPHEMERIS_TYPE":0,"CLASSIFICATION_TYPE":"U","NORAD_CAT_ID":47260,"ELEMENT_SET_NO":999,"REV_AT_EPOCH":25477,"BSTAR":-0.0008581,"MEAN_MOTION_DOT":-2.96e-06,"MEAN_MOTION_DDOT":0.0},{"OBJECT_NAME":"ONEWEB-0111","OBJECT_ID":"2020-100D","EPOCH":"2026-04-02T04:35:51.745632","MEAN_MOTION":13.12446271,"ECCENTRICITY":0.0001768,"INCLINATION":87.9019,"RA_OF_ASC_NODE":5.7499,"ARG_OF_PERICENTER":82.631,"MEAN_ANOMALY":277.5019,"EPHEMERIS_TYPE":0,"CLASSIFICATION_TYPE":"U","NORAD_CAT_ID":47261,"ELEMENT_SET_NO":999,"REV_AT_EPOCH":25459,"BSTAR":0.00037664999999999997,"MEAN_MOTION_DOT":1.48e-06,"MEAN_MOTION_DDOT":0.0},{"OBJECT_NAME":"ONEWEB-0114","OBJECT_ID":"2020-100E","EPOCH":"2026-04-02T07:09:33.601248","MEAN_MOTION":13.12444057,"ECCENTRICITY":0.0001734,"INCLINATION":87.902,"RA_OF_ASC_NODE":5.7248,"ARG_OF_PERICENTER":69.2237,"MEAN_ANOMALY":290.9077,"EPHEMERIS_TYPE":0,"CLASSIFICATION_TYPE":"U","NORAD_CAT_ID":47262,"ELEMENT_SET_NO":999,"REV_AT_EPOCH":25456,"BSTAR":0.0006556499999999999,"MEAN_MOTION_DOT":2.49e-06,"MEAN_MOTION_DDOT":0.0},{"OBJECT_NAME":"ONEWEB-0117","OBJECT_ID":"2020-100F","EPOCH":"2026-04-02T06:57:21.629952","MEAN_MOTION":13.12444323,"ECCENTRICITY":0.0001797,"INCLINATION":87.9017,"RA_OF_ASC_NODE":5.72,"ARG_OF_PERICENTER":78.2506,"MEAN_ANOMALY":281.8824,"EPHEMERIS_TYPE":0,"CLASSIFICATION_TYPE":"U","NORAD_CAT_ID":47263,"ELEMENT_SET_NO":999,"REV_AT_EPOCH":25457,"BSTAR":0.0011075,"MEAN_MOTION_DOT":4.11e-06,"MEAN_MOTION_DDOT":0.0},{"OBJECT_NAME":"ONEWEB-0118","OBJECT_ID":"2020-100G","EPOCH":"2026-04-02T05:56:22.163136","MEAN_MOTION":13.12444692,"ECCENTRICITY":0.0001561,"INCLINATION":87.9018,"RA_OF_ASC_NODE":5.7306,"ARG_OF_PERICENTER":70.0948,"MEAN_ANOMALY":290.0349,"EPHEMERIS_TYPE":0,"CLASSIFICATION_TYPE":"U","NORAD_CAT_ID":47264,"ELEMENT_SET_NO":999,"REV_AT_EPOCH":25476,"BSTAR":-0.0010579,"MEAN_MOTION_DOT":-3.68e-06,"MEAN_MOTION_DDOT":0.0},{"OBJECT_NAME":"ONEWEB-0119","OBJECT_ID":"2020-100H","EPOCH":"2026-04-02T06:32:58.178112","MEAN_MOTION":13.1244572,"ECCENTRICITY":0.0001788,"INCLINATION":87.901,"RA_OF_ASC_NODE":5.7492,"ARG_OF_PERICENTER":77.4679,"MEAN_ANOMALY":282.665,"EPHEMERIS_TYPE":0,"CLASSIFICATION_TYPE":"U","NORAD_CAT_ID":47265,"ELEMENT_SET_NO":999,"REV_AT_EPOCH":25474,"BSTAR":0.00078682,"MEAN_MOTION_DOT":2.96e-06,"MEAN_MOTION_DDOT":0.0}]